DMSP 5D-3 F16 (USA 172)
1 28054U 03048A   25265.84885359  .00000237  00000+0  14748-3 0  9992
2 28054  99.0123 282.6318 0007216 175.6958 271.3789 14.14379550131698
METEOSAT-9 (MSG-2)
1 28912U 05049B   25265.78540633  .00000123  00000+0  00000+0 0  9990
2 28912   8.7486  56.7233 0001523 203.9274  69.8291  1.00278480  4325
DMSP 5D-3 F17 (USA 191)
1 29522U 06050A   25265.72974824  .00000274  00000+0  16414-3 0  9995
2 29522  98.7420 272.7884 0011242  98.8346 261.4101 14.14864594974593
FENGYUN 3A
1 32958U 08026A   25265.55461935  .00000155  00000+0  93990-4 0  9995
2 32958  98.6548 206.8517 0008705 172.0257 188.1059 14.19473786897435
GOES 14
1 35491U 09033A   25265.62847594 -.00000073  00000+0  00000+0 0  9991
2 35491   0.9840  86.4722 0003741 107.5888 285.5597  1.00270727  3916
DMSP 5D-3 F18 (USA 210)
1 35951U 09057A   25265.81764738  .00000385  00000+0  22317-3 0  9991
2 35951  98.8719 242.6646 0010073 294.6141  65.3983 14.14700144821781
EWS-G2 (GOES 15)
1 36411U 10008A   25265.75266189  .00000033  00000+0  00000+0 0  9992
2 36411   0.5990  85.4498 0005136 138.2868 110.4264  1.00272311 56959
COMS 1
1 36744U 10032A   25265.53578391 -.00000348  00000+0  00000+0 0  9995
2 36744   4.1373  78.8127 0000726  84.1446 159.7111  1.00274542 48405
FENGYUN 3B
1 37214U 10059A   25266.05035005  .00000171  00000+0  11240-3 0  9990
2 37214  99.0042 305.4077 0021456 221.6211 195.7474 14.14756284769654
SUOMI NPP
1 37849U 11061A   25265.84657554  .00000207  00000+0  11908-3 0  9994
2 37849  98.7629 203.9713 0002076  48.2252 311.9101 14.19519212720513
METEOSAT-10 (MSG-3)
1 38552U 12035B   25265.65005604 -.00000008  00000+0  00000+0 0  9997
2 38552   4.0334  61.8862 0000221 209.1930 324.9272  1.00276216 48173
METOP-B
1 38771U 12049A   25265.77049920  .00000176  00000+0  10048-3 0  9999
2 38771  98.6440 317.0713 0002268  56.9596 303.1799 14.21463788675272
INSAT-3D
1 39216U 13038B   25265.72683601 -.00000344  00000+0  00000+0 0  9999
2 39216   1.2300  86.0525 0002069 132.7673 174.2049  1.00268767 44395
FENGYUN 3C
1 39260U 13052A   25265.96034100  .00000202  00000+0  12372-3 0  9995
2 39260  98.4659 247.6185 0015864  73.9161 286.3759 14.15656235620755
METEOR-M 2
1 40069U 14037A   25266.00526721  .00000304  00000+0  15826-3 0  9999
2 40069  98.4796 246.7209 0006959  92.1383 268.0592 14.21335650581364
HIMAWARI-8
1 40267U 14060A   25265.74920317 -.00000281  00000+0  00000+0 0  9993
2 40267   0.0149 179.6727 0001185  19.4575 213.1050  1.00272876 40065
FENGYUN 2G
1 40367U 14090A   25265.96140623 -.00000304  00000+0  00000+0 0  9991
2 40367   4.9592  76.0562 0003349 178.2161 193.4584  1.00276856 39328
METEOSAT-11 (MSG-4)
1 40732U 15034A   25265.65178939  .00000058  00000+0  00000+0 0  9998
2 40732   2.5281  72.1983 0000646 140.7878  32.7119  1.00275649  4536
ELEKTRO-L 2
1 41105U 15074A   25265.78985003 -.00000119  00000+0  00000+0 0  9998
2 41105   6.0163  73.8058 0002476 173.2501  24.6808  1.00271326 35826
INSAT-3DR
1 41752U 16054A   25265.88326590 -.00000082  00000+0  00000+0 0  9995
2 41752   0.0712  89.6640 0012369 174.0088 130.3012  1.00272614 33136
HIMAWARI-9
1 41836U 16064A   25265.32104328 -.00000283  00000+0  00000+0 0  9994
2 41836   0.0166 120.3457 0001488  82.5326  54.8835  1.00264015 32520
GOES 16
1 41866U 16071A   25265.62925595 -.00000097  00000+0  00000+0 0  9998
2 41866   0.1094  80.0132 0002303 134.0138 269.5645  1.00271438 32427
FENGYUN 4A
1 41882U 16077A   25265.88857333 -.00000361  00000+0  00000+0 0  9998
2 41882   1.6386  83.1219 0006379 160.1969 202.3061  1.00272914 32252
CYGFM05
1 41884U 16078A   25265.54409741  .00022979  00000+0  49869-3 0  9998
2 41884  34.9597 215.8342 0008465 157.7353 202.3736 15.43394134487192
CYGFM04
1 41885U 16078B   25265.49537309  .00026250  00000+0  52819-3 0  9990
2 41885  34.9350 192.9633 0008236 186.7213 173.3398 15.45591803487343
CYGFM02
1 41886U 16078C   25265.50357826  .00028100  00000+0  54230-3 0  9992
2 41886  34.9438 192.3232 0009554 181.4678 178.6016 15.46777089487462
CYGFM01
1 41887U 16078D   25265.56764930  .00023961  00000+0  51215-3 0  9997
2 41887  34.9431 218.6165 0007683 146.6624 213.4581 15.43842658487139
CYGFM08
1 41888U 16078E   25265.22811166  .00024267  00000+0  50036-3 0  9995
2 41888  34.9458 204.6628 0009894 168.0547 192.0409 15.44874850487306
CYGFM07
1 41890U 16078G   25265.51869792  .00026862  00000+0  54127-3 0  9996
2 41890  34.9475 192.1964 0008783 192.1994 167.8515 15.45542084487368
CYGFM03
1 41891U 16078H   25265.21848521  .00023770  00000+0  48437-3 0  9993
2 41891  34.9430 195.9944 0007251 175.8678 184.2103 15.45246590487296
FENGYUN 3D
1 43010U 17072A   25265.96989937  .00000196  00000+0  11427-3 0  9998
2 43010  98.9746 231.1232 0002552  88.7016 271.4452 14.19644811407073
