OBJECT_NAME,OBJECT_ID,EPOCH,MEAN_MOTION,ECCENTRICITY,INCLINATION,RA_OF_ASC_NODE,ARG_OF_PERICENTER,MEAN_ANOMALY,EPHEMERIS_TYPE,CLASSIFICATION_TYPE,NORAD_CAT_ID,ELEMENT_SET_NO,REV_AT_EPOCH,BSTAR,MEAN_MOTION_DOT,MEAN_MOTION_DDOT
DMSP 5D-3 F16 (USA 172),2003-048A,2025-09-22T20:22:20.950176,14.14379550,.00072162,99.0123,282.6318,175.6958,271.3789,0,U,28054,999,13169,.14747734E-3,.237E-5,0
METEOSAT-9 (MSG-2),2005-049B,2025-09-22T18:50:59.106912,1.00278480,.00015237,8.7486,56.7233,203.9274,69.8291,0,U,28912,999,432,0,.123E-5,0
DMSP 5D-3 F17 (USA 191),2006-050A,2025-09-22T17:30:50.247936,14.14864594,.00112425,98.7420,272.7884,98.8346,261.4101,0,U,29522,999,97459,.16414404E-3,.274E-5,0
FENGYUN 3A,2008-026A,2025-09-22T13:18:39.111840,14.19473786,.00087058,98.6548,206.8517,172.0257,188.1059,0,U,32958,999,89743,.93989711E-4,.155E-5,0
GOES 14,2009-033A,2025-09-22T15:05:00.321216,1.00270727,.00037412,0.9840,86.4722,107.5888,285.5597,0,U,35491,999,391,0,-.73E-6,0
DMSP 5D-3 F18 (USA 210),2009-057A,2025-09-22T19:37:24.733632,14.14700144,.00100732,98.8719,242.6646,294.6141,65.3983,0,U,35951,999,82178,.22317154E-3,.385E-5,0
EWS-G2 (GOES 15),2010-008A,2025-09-22T18:03:49.987296,1.00272311,.00051364,0.5990,85.4498,138.2868,110.4264,0,U,36411,999,5695,0,.33E-6,0
COMS 1,2010-032A,2025-09-22T12:51:31.729824,1.00274542,.00007265,4.1373,78.8127,84.1446,159.7111,0,U,36744,999,4840,0,-.348E-5,0
FENGYUN 3B,2010-059A,2025-09-23T01:12:30.244320,14.14756284,.00214569,99.0042,305.4077,221.6211,195.7474,0,U,37214,999,76965,.11239844E-3,.171E-5,0
SUOMI NPP,2011-061A,2025-09-22T20:19:04.126656,14.19519212,.00020768,98.7629,203.9713,48.2252,311.9101,0,U,37849,999,72051,.11908477E-3,.207E-5,0
METEOSAT-10 (MSG-3),2012-035B,2025-09-22T15:36:04.841856,1.00276216,.00002212,4.0334,61.8862,209.1930,324.9272,0,U,38552,999,4817,0,-.8E-7,0
METOP-B,2012-049A,2025-09-22T18:29:31.130880,14.21463788,.0002268,98.6440,317.0713,56.9596,303.1799,0,U,38771,999,67527,.10048128E-3,.176E-5,0
INSAT-3D,2013-038B,2025-09-22T17:26:38.631264,1.00268767,.00020699,1.2300,86.0525,132.7673,174.2049,0,U,39216,999,4439,0,-.344E-5,0
FENGYUN 3C,2013-052A,2025-09-22T23:02:53.462400,14.15656235,.00158647,98.4659,247.6185,73.9161,286.3759,0,U,39260,999,62075,.12371565E-3,.202E-5,0
METEOR-M 2,2014-037A,2025-09-23T00:07:35.086944,14.21335650,.0006959,98.4796,246.7209,92.1383,268.0592,0,U,40069,999,58136,.15825598E-3,.304E-5,0
HIMAWARI-8,2014-060A,2025-09-22T17:58:51.153888,1.00272876,.0001185,0.0149,179.6727,19.4575,213.1050,0,U,40267,999,4006,0,-.281E-5,0
FENGYUN 2G,2014-090A,2025-09-22T23:04:25.498272,1.00276856,.00033491,4.9592,76.0562,178.2161,193.4584,0,U,40367,999,3932,0,-.304E-5,0
METEOSAT-11 (MSG-4),2015-034A,2025-09-22T15:38:34.603296,1.00275649,.00006468,2.5281,72.1983,140.7878,32.7119,0,U,40732,999,453,0,.58E-6,0
ELEKTRO-L 2,2015-074A,2025-09-22T18:57:23.042592,1.00271326,.00024766,6.0163,73.8058,173.2501,24.6808,0,U,41105,999,3582,0,-.119E-5,0
INSAT-3DR,2016-054A,2025-09-22T21:11:54.173760,1.00272614,.00123694,0.0712,89.6640,174.0088,130.3012,0,U,41752,999,3313,0,-.82E-6,0
HIMAWARI-9,2016-064A,2025-09-22T07:42:18.139392,1.00264015,.00014884,0.0166,120.3457,82.5326,54.8835,0,U,41836,999,3252,0,-.283E-5,0
GOES 16,2016-071A,2025-09-22T15:06:07.714080,1.00271438,.00023036,0.1094,80.0132,134.0138,269.5645,0,U,41866,999,3242,0,-.97E-6,0
FENGYUN 4A,2016-077A,2025-09-22T21:19:32.735712,1.00272914,.00063798,1.6386,83.1219,160.1969,202.3061,0,U,41882,999,3225,0,-.361E-5,0
CYGFM05,2016-078A,2025-09-22T13:03:30.016224,15.43394134,.00084658,34.9597,215.8342,157.7353,202.3736,0,U,41884,999,48719,.49868827E-3,.22979E-3,0
CYGFM04,2016-078B,2025-09-22T11:53:20.234976,15.45591803,.00082363,34.9350,192.9633,186.7213,173.3398,0,U,41885,999,48734,.52818518E-3,.2625E-3,0
CYGFM02,2016-078C,2025-09-22T12:05:09.161664,15.46777089,.00095549,34.9438,192.3232,181.4678,178.6016,0,U,41886,999,48746,.54230414E-3,.281E-3,0
CYGFM01,2016-078D,2025-09-22T13:37:24.899520,15.43842658,.00076835,34.9431,218.6165,146.6624,213.4581,0,U,41887,999,48713,.51214881E-3,.23961E-3,0
CYGFM08,2016-078E,2025-09-22T05:28:28.847424,15.44874850,.00098943,34.9458,204.6628,168.0547,192.0409,0,U,41888,999,48730,.50035906E-3,.24267E-3,0
CYGFM07,2016-078G,2025-09-22T12:26:55.500288,15.45542084,.00087834,34.9475,192.1964,192.1994,167.8515,0,U,41890,999,48736,.54127107E-3,.26862E-3,0
CYGFM03,2016-078H,2025-09-22T05:14:37.122144,15.45246590,.00072511,34.9430,195.9944,175.8678,184.2103,0,U,41891,999,48729,.48436717E-3,.2377E-3,0
FENGYUN 3D,2017-072A,2025-09-22T23:16:39.305568,14.19644811,.00025522,98.9746,231.1232,88.7016,271.4452,0,U,43010,999,40707,.11427354E-3,.196E-5,0
